,Name,Address,Latitude,Longitude,Burden
0,USCCB/ The Paulist Center and Wed. Supper Club,"5 Park St. Boston, MA 02108 ",42.3573263,-71.0625445,638.0
1,St Anthony Shrine/Franciscan Food Center,"100 Arch Street Boston, MA 02110 ",42.3548751,-71.0583441,848.0
2,ABCD/ West End Senior Center ,"151 Cambridge St Boston, MA 02114",42.36154,-71.0650533,592.0
3,Boston Rescue Mission / Pantry & Meals,"39 Kingston St. Boston, MA 02111 ",42.353551,-71.059457,663.0
4,St. Francis House Meals ,"39 Boylston St. Boston, MA 02116 ",42.3524148,-71.06353659999999,622.0
5,ABCD N. End/W.End Pantry and Neighborhood Services ,"1 Michelangelo Street Boston, MA 02113 ",42.3672653,-71.055116,695.0
6,Friday Night Supper ,"351 Boylston St. Boston, MA 02116 ",42.3520452,-71.0711798,620.0
7,Rice Sticks and Tea/Asian Food Pantry ,"351 Boylston St. Boston, MA 02116 ",42.3520452,-71.0711798,630.0
8,Church of the Covenant ,"67 Newbury St. Boston, MA 02116 ",42.3521496,-71.07396539999999,653.0
9,Womens Lunch Place ,"67 Newbury St. Boston, MA 02116 ",42.3521496,-71.07396539999999,630.0
10,Victory Programs/Boston Living Center Meals Program ,"29 Stanhope Street Boston, MA 02116 ",42.3484755,-71.0730305,634.0
11,BHCC - DISH Pantry ,"250 Rutherford Ave. Charlestown, MA 02129",42.3743388,-71.0693692,647.0
12,YMCA Boston/East Boston Community Soup Kitchen Mobile Market ,"28 Paris St. East Boston, MA 02128",42.3700527,-71.04016589999999,492.0
13,Pine Street Inn/Meals ,"444 Harrison Ave. Boston, MA 02118  ",42.34315900000001,-71.0644712,591.0
14,The Harvest on Vine ,"49 Vine Street Charlestown, MA 02129 ",42.3772981,-71.0568114,566.0
15,Holy Redeemer Church/Our Daily Bread Pty,"56 Havre Street East Boston, MA 02128 ",42.3711709,-71.0400618,516.0
16,YMCA Boston/Church Faro De Luz ,"32 Bremen Street East Boston, MA 02128 ",42.3694059,-71.0384333,513.0
17,Haley House Food Pantry & Soup Kitchen ,"23 Dartmouth Street Boston, MA 02116",42.34372140000001,-71.0739074,617.0
18,East End House Pantry ,"105 Spring Street Cambridge, MA 02141 ",42.3694458,-71.0830689,515.0
19,TBU DBA Outreach Van Project ,"197 Border St. East Boston, MA02128 ",42.374726,-71.03992699999999,493.0
20,YMCA Boston/Paris St BCYF (MML),"112 Paris Street Boston, MA 02128 ",42.3728864,-71.0374266,494.0
21,CCAB/EL Centro Del Cardena ,"Monsignor Reynolds Way Boston, MA 0211 ",42.3404749,-71.0696473,589.0
22,Salvation Army/South End Food Pantry & Meals ,"1500 Washington Street Boston, MA 02118 ",42.3397559,-71.0718298,665.0
23,CWS/Central Assembly of God Church ,"50 Bennington St East Boston, MA 02128 ",42.375734,-71.0372641,533.0
24,Union United Methodist Church Food Pantry,"485 Columbus Ave. Roxbury, MA 02118 ",42.3431615,-71.0791651,710.0
25,YMCA Boston/East Boston,"215 Bremen Street East Boston, MA 02128 ",42.3734462,-71.0331085,485.0
26,Food for Free ,"59 Inner Belt Road Somerville, MA 02143 ",42.3781298,-71.08152559999999,471.0
27,South Boston Community Health Center ,"409 West Broadway South Boston, MA 02127 ",42.3368405,-71.0482446,946.0
28,ABCD/South End Neighborhood Action Prgrm ,"554 Columbus Avenue Roxbury, MA 02118 ",42.34116969999999,-71.080681,631.0
29,ABC/ Peoples Baptist Church Food Pantry ,"134 Camden Street Roxbury, MA 02118 ",42.3381674,-71.0818472,635.0
30,Boston Medical Center Food Pantry ,"850 Harrison Ave Boston, MA02118 ",42.3347398,-71.0742333,608.0
31,Margaret Fuller Neighborhood House Food Pantry,"71 Cherry St. Cambridge, MA 02139",42.3646789,-71.09736339999999,488.0
32,Rosies Place Food Pantry ,"889 Harrison Ave  Boston, MA02118 ",42.3340922,-71.07693619999999,613.0
33,Grant A.M.E./Self-Help ,"1906 Washington St. Boston, MA 02118",42.3343982,-71.0791649,642.0
34,TTGAOP/Fourth Church Food Pantry ,"340 Dorchester St. South Boston, MA 02127",42.3307144,-71.0541002,658.0
35,Mass. Ave. Baptist Church Pantry and Meals ,"146 Hampshire Street Cambridge, MA 02139 ",42.3709642,-71.0977948,465.0
36,United Emmanuel Holiness Church ,"65 Windsor St. Roxbury, MA 02120",42.3353146,-71.0841683,623.0
37,Salvation Army/Cambridge Food Pantry and Meals ,"402 Massachusetts Avenue Cambridge, MA 02139 ",42.3630642,-71.10052019999999,525.0
38,St. Augustines Food Pantry ,"331 Old Colony Ave South Boston, MA 02127 ",42.3290684,-71.05316570000001,649.0
39,St. Pauls AME Church Pantry ,"85 Bishop Allen Drive Cambridge, MA 02139 ",42.3657584,-71.10168879999999,507.0
40,Islamic Multi Service Organization ,"722 Shawmut Avenue Roxbury, MA 02119  ",42.3328058,-71.0832602,667.0
41,Chelsea Jewish Foundation Food Pantry ,"165 Captains Row Chelsea, MA 02150 ",42.3911609,-71.044716,440.0
42,MGH/Chelsea Emergency Food Pantry Quigley Park Mobile Market ,"22 Essex St. Chelsea, MA 02150 ",42.389297,-71.0367381,475.0
43,American Red Cross DBA ARC Boston Pantry ,"1033 Massachusetts Ave Boston, MA 02118",42.3271288,-71.0677022,577.0
44,SHA4CD ,"59 Cross Street Somerville,  MA 02145 ",42.3861773,-71.0880786,437.0
45,Somerville Homeless Coalition/Project SOUP ,"165 Broadway Somerville, MA 02143 ",42.3887918,-71.0855717,444.0
46,CCAB/Somerville ,"270 Washington Street Somerville, MA 02143 ",42.3792796,-71.09795129999999,396.0
47,CEOC Central Square ,"11 Inman St. Cambridge, MA 02139 ",42.3673507,-71.1050946,507.0
48,"Boston Missionary Baptist Community Center, Inc","336 Dudley St Roxbury, MA 02119 ",42.3273286,-71.0764708,641.0
49,MGH/Chelsea Emergency Food Pantry Highland Park Mobile Market ,"30 Willow St. Chelsea, MA 02150 ",42.3874403,-71.0279547,545.0
50,CWS/Vine St. Community Center,"390 Dudley St. Roxbury, MA 02119 ",42.3260118,-71.0753046,601.0
51,Whittier Street Health Center ,"1290 Tremont Street Boston, MA 02120",42.3328735,-71.0920291,646.0
52,MGH/Chelsea Emergency Food Pantry Luther Place Mobile Market ,"Luther Place Chelsea, MA 02150 ",42.3926372,-71.0355426,406.0
53,Resurrection Lutheran Church ,"94 Warren St. Roxbury, MA 02119 ",42.3272754,-71.0826934,602.0
54,MGH/Chelsea Emergency Food Pantry Bosson Park Mobile Market ,"43 Bellingham St. Chelsea, MA 02150 ",42.39221999999999,-71.0322789,461.0
55,Salvation Army/Chelsea Pantry ,"258 Chestnut Street Chelsea, MA 02150 ",42.3938082,-71.0348149,451.0
56,MGH/Chelsea Emergency Food Pantry Bellingham Hill Park Mobile ,"115 Bellingham St. Chelsea, MA 02150 ",42.3910086,-71.0286512,500.0
57,MGH/Chelsea Emergency Food Pantry Chelsea Square Mobile Market ,"2nd St. Chelsea, MA 0215 ",42.3971673,-71.046837,425.0
58,MGH/Chelsea Emergency Food Pantry City Hall Mobile Market ,"500 Broadway Chelsea, MA 02150 ",42.39365859999999,-71.0332961,491.0
59,Twelfth Baptist Church Food Pantry ,"160 Warren St. Roxbury, MA 02119 ",42.325405,-71.0827668,616.0
60,MGH/Food For Families ,"151 Everett Avenue Chelsea, MA 02150",42.396155,-71.0391525,421.0
61,Grace Federated Church/Emrg Food Cupboard,"760 Saratoga St. East Boston, MA 02128 ",42.3839789,-71.017158,504.0
62,Eliot Family Resource Center ,"548 Broadway Avenue Everett, MA 02149",42.3938713,-71.0324811,428.0
63,USCCB/Blessed Mother Teresa Parish ,"800 Columbia Road Dorchester, MA 02125",42.3209482,-71.0573407,637.0
64,YMCA Boston/Restoration Church (MML) ,"10 East Cottage Street Boston, MA 02125 ",42.3215937,-71.0715326,610.0
65,Elizabeth Peabody House Food Pantry ,"277 Broadway Somerville, 
MA 02145",42.3918129,-71.0912123,429.0
66,YMCA Boston/Dudley Street Neighborhood Initiative(MML) ,"550 Dudley Street Roxbury, MA 02119 ",42.32161259999999,-71.07209950000001,650.0
67,CWS/Timothy Baptist Church,"35 Highland St. Roxbury, MA 02119 ",42.3287809,-71.0921863,641.0
68,ABCD/Parker Hill Fenway Nghbrhd Svc Ctr. ,"714 Parker St Roxbury, MA 02120 ",42.3312087,-71.0971545,727.0
69,Salvation Army/Kroc Ctr Emerg Food Pntry,"650 Dudley Street Dorchester, MA 02125 ",42.3193576,-71.0700145,710.0
70,Omega Men in Action ,"32-34 Linwood Street Roxbury, MA 02119 ",42.3278062,-71.0939601,636.0
71,Mission Church Shepherds Kitchen,"130 Highland Avenue Somerville, MA 02143",42.387502,-71.1014564,427.0
72,ICNA Relief ,"1234 Columbus Ave Boston, MA 02120 ",42.3285047,-71.09643489999999,722.0
73,MCHC/Food Pantry ,"100 Temple Street Yolaine Rosarion Somerville, MA 02145 ",42.3957151,-71.0904927,395.0
74,Brookline Food Pantry Egmont St ,"55A Egmonst Street Brookline, MA 02446 ",42.3499098,-71.1163275,497.0
75,Eliot Congregational Church Food Pantry,"56 Dale St. Roxbury, MA 02119 ",42.3209161,-71.0854789,640.0
76,Bread of Life/The Family Church,"1691 Revere Beach Parkway
Everett,
MA 02149",42.4021117,-71.0426329,387.0
77,St. Marys Food Pantry ,"14 Cushing Ave. Dorchester, MA 02125",42.3163211,-71.0642158,732.0
78,St. Lukes-San Lucas Food Pantry & Soup Kitchen ,"201 Washington Avenue Chelsea, MA 02150 ",42.3994712,-71.0317203,398.0
79,Pilgrim Church Food Pantry and Community Lunch ,"540 Columbia Road Dorchester, MA 02125 ",42.3160647,-71.06663,707.0
80,YMCA Boston/Waltham Chapel,"234 Blue Hill Avenue Boston, MA 02119 ",42.3166823,-71.0779864,611.0
81,Hearts of Life ,"404 Broadway Somerville, MA 02145 ",42.3951954,-71.0991488,369.0
82,CWS/Church of God Galilee,"402 Warren St. Roxbury, MA 02119 ",42.3171768,-71.0821635,619.0
83,UMASS Boston U-ACCESS Food Pantry,"100 William T Morrissey Blvd Dorchester, MA 02125 ",42.3148925,-71.0393145,527.0
84,Harvard Square Churches Meal Program ,"0 Garden St. Cambridge, MA 02138",42.3753143,-71.1205744,407.0
85,Emmanuel Temple Church Food Pantry ,"471 Warren St. Dorchester, MA 02121 ",42.3152951,-71.0836683,643.0
86,MGH/Chelsea Emergency Food Pantry Washington Park Mobile Market ,"Washington Park Chelsea, MA 02150 ",42.4056278,-71.0358479,379.0
87,GGWO/Grace Ministries ,"50 Church St. Everett, MA 02149 ",42.4092441,-71.0561508,411.0
88,MGH/Chelsea Emergency Food Pantry Burke Elementary School Mobile Market ,"300 Crescent Ave. Chelsea, MA 02150 ",42.3993231,-71.018947,383.0
89,CWS/Anna M. Cole Community Center,"10 Lamartine St. Boston, MA 02130 ",42.3220635,-71.10089599999999,669.0
90,YMCA Boston/New Sinai House of Prayer (MML),"429 Bowdoin Street Boston, MA 02122 ",42.3104463,-71.0619409,790.0
91,Brookline Emergency Food Pantry ,"15 Marion St Brookline, MA 02446 ",42.3401823,-71.1215546,547.0
92,Charles Street A.M.E. Church ,"551 Warren St. Dorchester, MA 02121 ",42.3127561,-71.0838061,620.0
93,ABCD Roxbury/N. Dorchester Neighborhood Opportunity Center ,"565 Warren Street Dorchester, MA 02121 ",42.31261780000001,-71.0834362,656.0
94,Community Servings ,"179 Amory Street Jamaica Plain, MA 02130",42.3176405,-71.10276990000001,693.0
95,USCC/St. Mary of the Angels Food Pantry ,"377 Walnut Ave Roxbury, MA 02119",42.3137359,-71.09511189999999,642.0
96,CWS/Cape Verdean Association of Boston,"242 Bowdoin St. Dorchester, MA 02122 ",42.3061895,-71.0673596,989.0
97,Mystic Community Market ,"291 Mystic Ave Medford, MA 02155 ",42.4044914,-71.10168329999999,390.0
98,St. James Episcopal/Helping Hand Pantry ,"1991 Massachusetts Ave Cambridge, MA 02140",42.39071999999999,-71.120918,383.0
99,CCAB/Yawkey Center ,"185 Columbia Rd Dorchester, MA 02121",42.3064289,-71.07709059999999,711.0
100,Berea Church Pantry ,"108 Seaver Street Dorchester, MA 02121 ",42.3103911,-71.092164,583.0
101,Dorchester House ,"1353 Dorchester Ave Dorchester, MA 02122",42.3044999,-71.05938739999999,977.0
102,APAC / Allston-Brighton ,"406 Cambridge Street Allston, MA 02134 ",42.3548017,-71.13371939999999,1531.0
103,The Connolly Center ,"100 Elm Street Everett, MA 02149",42.4144474,-71.0435571,354.0
104,Selah Day Resource Center ,"738 Broadway St Unit B Chelsea, MA 02150 ",42.415388,-71.0482692,354.0
105,Holy Tabernacle Church ,"70 Washington Street Dorchester, MA 02121 ",42.3064462,-71.0812103,708.0
106,SVDP/Our Lady of Lourdes ,"54 Brookside Ave Jamaica Plain, MA 02130 ",42.312959,-71.10330549999999,629.0
107,Brookline Emergency Food Pantry ,"226 High Street Brookline, MA02446 ",42.3242044,-71.12101539999999,588.0
108,West End House Boys & Girls Club ,"105 Allston St. Allston, MA 02134 ",42.34996049999999,-71.1373783,565.0
109,YMCA Boston/VietAID(MML),"42 Charles St Dorchester, MA 02122 ",42.29994250000001,-71.0634292,3341.0
110,Bread of Life Food Pantry ,"Malden Pantry 109 Madison Ave Malden, MA02148 ",42.4211484,-71.0701411,366.0
111,First Congregational Church Pantry ,"230 Beach St. Revere, MA 02151 ",42.40938130000001,-71.0085897,346.0
112,"GBCN/Malden Haitian Church, Nazarene FP","12 Thacher Street Malden, MA 02148 ",42.4202284,-71.0782136,318.0
113,Lafayette School (MML) ,"117 Edith Street Everett, MA 02149 ",42.42194019999999,-71.0510135,377.0
114,First Baptist Church in Jamaica Plain ,"633 Centre Street Jamaica Plain, MA 02130 ",42.3126636,-71.11433079999999,2413.0
115,Greater Anointing Church Pantry ,"20 Charlotte St Dorchester, MA 02121",42.299958,-71.0851307,621.0
116,ABCUSA/Emmanuel Baptist Church FP ,"20 Hillside Avenue Malden, MA 02148 ",42.4234907,-71.0655053,340.0
117,Codman Square Health Center ,"450 Washington Street Dorchester, MA 02111 ",42.2958781,-71.0717834,977.0
118,Church of God of Prophecy/Roxbury ,"179 Glenway St. Dorchester, MA 02121 ",42.2971077,-71.08104349999999,694.0
119,Eglise Baptiste Haitienne ,"1 Dix Street Dorchester, MA 02122 ",42.2949423,-71.06136169999999,1102.0
120,CEOC Food Pantry North Cambridge ,"266A Rindge Ave Cambridge, MA 02140",42.393444,-71.13488,363.0
121,Bethel Tabernacle Pentecostal Church ,"12 Bicknell Street Dorchester, MA 02121 ",42.2967585,-71.0827867,652.0
122,YMCA Boston/Carver Lodge(CPAN),"80 Talbot Avenue Boston, MA 02124 ",42.2939664,-71.0837099,636.0
123,Harvard Street Neighborhood Health Ctr. ,895 Blue Hill Ave. Dorchester MA 02124 ,42.2941024,-71.0885213,573.0
124,Philadelphie SDA Church Pantry & Soup Kitchen ,"575 Main Street Malden, MA 02148 ",42.4293853,-71.0668869,336.0
125,Faith Pentecostal Church DBA Faith Christian Church ,"301 Harvard Street Dorchester, MA 02124 ",42.29418250000001,-71.0894759,618.0
126,CWS/BCYF Perkins Community Center,"155 Talbot Ave. Dorcester, MA 02124 ",42.29210130000001,-71.08014,668.0
127,"Tifereth Raphael, Inc ","77 Englewood Ave Brighton,  MA 02135 ",42.338143,-71.1487058,448.0
128,YMCA/Malden ,"99 Dartmouth Street Malden, MA 02148  ",42.4301074,-71.0684407,340.0
129,USCC/St. Patricks Food Pantry-Watertown,"770 Mount Auburn St Watertown, MA 02472 ",42.3741754,-71.1525317,375.0
130,First Baptist Church in Jamaica Plain Food Pantry ,"3702 Washington Street Jamaica Plain, MA 02130 ",42.3004822,-71.1128453,575.0
131,MACCMS/ Allston-Brighton Food Pantry and Meals Prgm ,"404 Washington Street Brighton, MA 02135 ",42.3487592,-71.1552075,420.0
132,Unitarian Universalist Church Pantry ,"147 High Street Medford, MA 02155 ",42.4206624,-71.11500389999999,333.0
133,Belmont Church of God Food Pantry,"25 Marlboro Street Belmont, MA 02478 ",42.3767119,-71.1567912,388.0
134, HHS/Neponset Health Center Food Pantry," 10 Minot Street Dorchester, MA 02122",42.2863015,-71.0443229,478.0
135,YMCA Boston/Dorchester ,"776 Washington St. Dorchester, MA 02124 ",42.2847192,-71.0708526,677.0
136,USCC/ St. Matthews Church Food Pantry ,"29 Stanton Street Dorchester, MA 02124 ",42.2846985,-71.0800912,636.0
137,YMCA Boston/Temple Salem,"222 Woodrow Avenue Boston, MA 02124 ",42.2857132,-71.0891,611.0
138,YMCA Boston/Brigham & Womens Van (MML),"1153 Centre Street Boston, MA 02130 ",42.3014851,-71.1282337,540.0
139,"Arlington EATS, Inc. ","117 Broadway Arlington, MA 02474 ",42.4103807,-71.1404419,341.0
140,Freedom Hill Community Church Pantry ,"77 Kennedy Drive Malden, MA 02148",42.4388982,-71.0279547,332.0
141,SVDP/St. Raphaels Food Pantry ,"38 Boston Ave Medford, MA 02155 ",42.4204491,-71.1351632,359.0
142,Glad Tidings Food Pantry ,"573 Norfolk Street Dorchester,  MA 02126 ",42.2773375,-71.0922621,1254.0
143,"BMC/Healthy Baby, Healthy Child ","213 River Street Mattapan, MA 02126 ",42.2735981,-71.0823684,539.0
144,Greater Boston Nazarene Compassion. Ctr. ,"130 River Street Mattapan, MA 02126 ",42.2711641,-71.0770277,508.0
145,Roslindale Food Pantry ,"25 Cummins Highway Roslindale, MA 02131 ",42.2856447,-71.1275421,763.0
146,Watertown Food Pantry ,"80 Mt. Auburn St. Watertown, MA 02472 ",42.3672148,-71.1811997,322.0
147,NHM/Mattapan Mobile Market ,"120 Babson Street Boston, MA 02126",42.27088579999999,-71.0923505,611.0
148,Belmont Food Pantry ,"455 Concord Ave Belmont, MA 02478",42.3966161,-71.17730720000002,334.0
149,United Parish Food Pantry ,"50 Essex St Saugus, MA 01906 ",42.4486247,-71.0118428,269.0
150,"50 Essex St Saugus, MA 01906 ","493 Lincoln Avenue Saugus, MA 01906 ",42.4488042,-71.00945030000001,280.0
151,YMCA Boston/Church of the Holy Spirit (MML),"525 River Street Boston, MA 02126 ",42.2675642,-71.0952554,527.0
152,Voice of Tabernacle Multiservice Center ,"47-49 Edgewater Dr. Mattapan, MA 02126",42.2656826,-71.09634369999999,502.0
153,YMCA Boston/Health Leads (CPAN) ,"98 Thorn Street Boston, MA 02126 ",42.2644967,-71.1030731,456.0
154,Milton Community Food Pantry ,"158 Blue Hills Parkway Milton, MA 02186 ",42.261537,-71.0930614,475.0
155,Roses Bounty ,"77 Stratford Street West Roxbury, MA 02132 ",42.2830525,-71.1502996,432.0
156,Centre Street Food Pantry ,"11 Homer Street Newton, MA 02459",42.3349884,-71.19400499999999,317.0
157,ABCUSA/ Concord Baptist Church ,"180 Blue Hill Ave Milton, MA 02186 ",42.2586994,-71.0972706,431.0
158,YMCA Boston/Parkway Community ,"1972 Centre Street West Roxbury, MA 02132 ",42.2828974,-71.1568736,490.0
159,YMCA Boston/Domincan Develoment Center (MML),"707 Metropolitan Avenue Boston, MA 02136 ",42.2615726,-71.11665359999999,442.0
160,Interfaith Social Services ,"105 Adams Street Quincy, MA 02169 ",42.2563766,-71.0092425,301.0
161,Newton Food Pantry ,"1000 Commonwealth Avenue Newton, MA02459 ",42.3374309,-71.2088565,307.0
162,USCC/Hyde Park Food Pantry,"1179 River Street Hyde Park, MA 02136 ",42.2565282,-71.1209922,381.0
163,FBMS/Father Bills Place ,"38 Broad St. Quincy, MA 02169 ",42.2561089,-70.9946623,301.0
164,YMCA Boston/Mt Olives Comm Center (CPAN) ,"1283 Hyde Park Avenue Boston, MA 02136 ",42.255166,-71.124707,384.0
165,Adventist Community Services Food Pantry ,"9 Gerry Street Stoneham, MA 02180 ",42.4752986,-71.0998106,287.0
166,Salvation Army/Quincy Food Pantry ,"6 Baxter St. Quincy, MA 02169 ",42.2494148,-70.99657499999999,316.0
167,International Ministry Food Pantry ,"465 Summer St. Lynn, MA 01905 ",42.459718,-70.9660806,277.0
168,Quincy Community Action/ Emerg Food Ctr,"18 Copeland St. Quincy, MA 02169",42.24230060000001,-71.01618429999999,327.0
169,YMCA/Germantown Neighborhood Food Pantry ,"366 Palmer St. Quincy, MA 02169",42.25410309999999,-70.96609409999999,289.0
170,Catholic Charities/Lynn Pantry ,"117 N Common St. Lynn, MA 01902 ",42.4638508,-70.95887739999999,257.0
171,St. Stephens Food Pantry ,"74 South Common Steet Lynn, MA 01902 ",42.46300919999999,-70.95622449999999,237.0
172,The Salvation Army Lynn Citadel Corps,"1 Franklin St Lynn, MA 01902 ",42.4649376,-70.9525407,235.0
173,Salvation Army/Waltham Pantry & Meals Program ,"33 Myrtle Street Waltham, MA 02453 ",42.36587859999999,-71.23642570000001,282.0
174,MHSA/Bristol Lodge Pantry ,"545 Moody Street Waltham,  MA 02451 ",42.3670058,-71.2379358,279.0
175,My Brothers Table,"98 Willow St. Lynn, MA 01901 ",42.4649529,-70.9475283,226.0
176,Healthy Waltham Mobile Pantry ,"5 Cherry Street Waltham, MA 02453 ",42.3672878,-71.24217759999999,243.0
177,Anchor Baptist Church Pantry ,"29A Montvale Ave. Woburn, MA 01801",42.4793269,-71.1494579,274.0
178,Wakefield Food Pantry ,"467 Main Street Wakefield, MA 01801 ",42.4818447,-71.1505365,259.0
179,Wellspring Multi-Service Pantry,"814 Nantasket Ave. Hull, MA 02045 ",42.3024385,-70.8833899,240.0
180,Braintree SDA Community Services Food Pantry ,"250 Washington St. Braintree, MA 02184 ",42.2237774,-71.0046338,286.0
